GLOBALSTAR M063         
1 26081U 00008A   24346.65649975 -.00000008  00000+0  10897-2 0  9990
2 26081  51.9946 245.4601 0004586 324.6224  65.8406 11.86166410135384
GLOBALSTAR M062         
1 26082U 00008B   24346.61516979 -.00000082  00000+0  11537-3 0  9999
2 26082  51.9855 287.3710 0007543  69.4114 101.8939 12.43453200473284
GLOBALSTAR M060         
1 26083U 00008C   24346.65533056  .00000055  00000+0  14474-2 0  9990
2 26083  51.9999 220.7306 0004429  95.0275 310.5252 12.17650797129690
GLOBALSTAR M064         
1 26084U 00008D   24346.34882811 -.00000058  00000+0  35640-3 0  9996
2 26084  52.0052 347.3112 0001669  56.3140 303.7852 11.88526301144763
GLOBALSTAR M065         
1 31571U 07020A   24346.85493490  .00000058  00000+0  90539-3 0  9998
2 31571  51.9902  76.4399 0009752 246.6359 258.4690 12.61983607810052
GLOBALSTAR M069         
1 31573U 07020C   24346.60479934 -.00000061  00000+0  25281-3 0  9997
2 31573  51.9969  36.4221 0000905 128.3091   7.7595 12.53306648810725
GLOBALSTAR M072         
1 31574U 07020D   24346.69038140 -.00000087  00000+0  68098-4 0  9999
2 31574  52.0065 134.1501 0001229 101.9694 271.6094 12.34773485809212
GLOBALSTAR M071         
1 31576U 07020F   24345.67788993 -.00000053  00000+0  29786-3 0  9999
2 31576  52.0086  41.1589 0000499  73.5050  69.4835 12.56567665471922
